start=new Date('2022-06-29T00:00:00.000Z').valueOf();
sats=[{"ELEMENT_SET_NO":"999","TIME_SYSTEM":"UTC","RA_OF_ASC_NODE":"201.7268","SITE":"AFETR","MEAN_MOTION_DOT":"-0.00001209","ARG_OF_PERICENTER":"65.1066","MEAN_MOTION_DDOT":"0.0000000000000","CENTER_NAME":"EARTH","CLASSIFICATION_TYPE":"U","OBJECT_ID":"2021-021C","FILE":"3504942","ECCENTRICITY":"0.00014370","EPOCH":"2022-06-28T18:05:55.269024","REF_FRAME":"TEME","PERIAPSIS":"546.268","MEAN_MOTION":"15.06383740","MEAN_ELEMENT_THEORY":"SGP4","EPHEMERIS_TYPE":"0","MEAN_ANOMALY":"295.0072","OBJECT_NAME":"STARLINK-2291","RCS_SIZE":"LARGE","SEMIMAJOR_AXIS":"6925.398","TLE_LINE2":"2 47862  53.0541 201.7268 0001437  65.1066 295.0072 15.06383740 72867","GP_ID":"207058832","TLE_LINE1":"1 47862U 21021C   22179.75411191 -.00001209  00000-0 -62318-4 0  9991","OBJECT_TYPE":"PAYLOAD","LAUNCH_DATE":"2021-03-14","INCLINATION":"53.0541","APOAPSIS":"548.259","REV_AT_EPOCH":"7286","PERIOD":"95.593","DECAY_DATE":null,"COUNTRY_CODE":"US","BSTAR":"-0.00006231800000","NORAD_CAT_ID":"47862"},{"REV_AT_EPOCH":"7273","APOAPSIS":"548.183","NORAD_CAT_ID":"47863","BSTAR":"-0.00002826000000","COUNTRY_CODE":"US","DECAY_DATE":null,"PERIOD":"95.592","LAUNCH_DATE":"2021-03-14","OBJECT_TYPE":"PAYLOAD","TLE_LINE1":"1 47863U 21021D   22179.77898120 -.00000702  00000-0 -28260-4 0  9990","GP_ID":"207058579","SEMIMAJOR_AXIS":"6925.352","TLE_LINE2":"2 47863  53.0540 211.6187 0001395  60.3495 299.7633 15.06398905 72732","RCS_SIZE":"LARGE","OBJECT_NAME":"STARLINK-2293","MEAN_ANOMALY":"299.7633","INCLINATION":"53.0540","EPOCH":"2022-06-28T18:41:43.975680","ECCENTRICITY":"0.00013950","EPHEMERIS_TYPE":"0","MEAN_ELEMENT_THEORY":"SGP4","MEAN_MOTION":"15.06398905","REF_FRAME":"TEME","PERIAPSIS":"546.251","MEAN_MOTION_DOT":"-0.00000702","RA_OF_ASC_NODE":"211.6187","SITE":"AFETR","TIME_SYSTEM":"UTC","ELEMENT_SET_NO":"999","FILE":"3504942","OBJECT_ID":"2021-021D","CENTER_NAME":"EARTH","CLASSIFICATION_TYPE":"U","MEAN_MOTION_DDOT":"0.0000000000000","ARG_OF_PERICENTER":"60.3495"},{"REF_FRAME":"TEME","PERIAPSIS":"546.050","MEAN_MOTION":"15.06393844","MEAN_ELEMENT_THEORY":"SGP4","EPHEMERIS_TYPE":"0","ECCENTRICITY":"0.00017080","EPOCH":"2022-06-28T18:11:13.983072","ARG_OF_PERICENTER":"62.5555","MEAN_MOTION_DDOT":"0.0000000000000","CLASSIFICATION_TYPE":"U","CENTER_NAME":"EARTH","OBJECT_ID":"2021-021E","FILE":"3504942","ELEMENT_SET_NO":"999","TIME_SYSTEM":"UTC","SITE":"AFETR","RA_OF_ASC_NODE":"201.7493","MEAN_MOTION_DOT":"-0.00000729","PERIOD":"95.593","DECAY_DATE":null,"COUNTRY_CODE":"US","BSTAR":"-0.00003004600000","NORAD_CAT_ID":"47864","APOAPSIS":"548.415","REV_AT_EPOCH":"7284","INCLINATION":"53.0538","MEAN_ANOMALY":"297.5608","OBJECT_NAME":"STARLINK-2304","RCS_SIZE":"LARGE","TLE_LINE2":"2 47864  53.0538 201.7493 0001708  62.5555 297.5608 15.06393844 72846","SEMIMAJOR_AXIS":"6925.367","GP_ID":"207059332","OBJECT_TYPE":"PAYLOAD","TLE_LINE1":"1 47864U 21021E   22179.75780073 -.00000729  00000-0 -30046-4 0  9990","LAUNCH_DATE":"2021-03-14"},{"ELEMENT_SET_NO":"999","TIME_SYSTEM":"UTC","RA_OF_ASC_NODE":"212.9045","SITE":"AFETR","MEAN_MOTION_DOT":"0.00002561","ARG_OF_PERICENTER":"66.8066","MEAN_MOTION_DDOT":"0.0000000000000","CLASSIFICATION_TYPE":"U","CENTER_NAME":"EARTH","OBJECT_ID":"2021-021F","FILE":"3504789","ECCENTRICITY":"0.00014550","EPOCH":"2022-06-28T11:41:03.949728","PERIAPSIS":"546.196","REF_FRAME":"TEME","MEAN_MOTION":"15.06403380","MEAN_ELEMENT_THEORY":"SGP4","EPHEMERIS_TYPE":"0","MEAN_ANOMALY":"293.3076","OBJECT_NAME":"STARLINK-2310","RCS_SIZE":"LARGE","TLE_LINE2":"2 47865  53.0537 212.9045 0001455  66.8066 293.3076 15.06403380 72790","SEMIMAJOR_AXIS":"6925.338","GP_ID":"207031220","TLE_LINE1":"1 47865U 21021F   22179.48685127  .00002561  00000-0  19074-3 0  9996","OBJECT_TYPE":"PAYLOAD","LAUNCH_DATE":"2021-03-14","INCLINATION":"53.0537","APOAPSIS":"548.211","REV_AT_EPOCH":"7279","PERIOD":"95.592","DECAY_DATE":null,"COUNTRY_CODE":"US","BSTAR":"0.00019074000000","NORAD_CAT_ID":"47865"},{"PERIAPSIS":"546.026","REF_FRAME":"TEME","EPHEMERIS_TYPE":"0","MEAN_MOTION":"15.06388425","MEAN_ELEMENT_THEORY":"SGP4","EPOCH":"2022-06-28T13:23:17.029536","ECCENTRICITY":"0.00017660","ARG_OF_PERICENTER":"56.4316","OBJECT_ID":"2021-021G","FILE":"3504789","MEAN_MOTION_DDOT":"0.0000000000000","CLASSIFICATION_TYPE":"U","CENTER_NAME":"EARTH","TIME_SYSTEM":"UTC","ELEMENT_SET_NO":"999","RA_OF_ASC_NODE":"212.6093","SITE":"AFETR","MEAN_MOTION_DOT":"-0.00000136","PERIOD":"95.593","BSTAR":"0.00000978600000","NORAD_CAT_ID":"47866","DECAY_DATE":null,"COUNTRY_CODE":"US","APOAPSIS":"548.472","REV_AT_EPOCH":"7285","INCLINATION":"53.0529","OBJECT_NAME":"STARLINK-2320","RCS_SIZE":"LARGE","MEAN_ANOMALY":"303.6842","TLE_LINE1":"1 47866U 21021G   22179.55783599 -.00000136  00000-0  97860-5 0  9995","OBJECT_TYPE":"PAYLOAD","LAUNCH_DATE":"2021-03-14","SEMIMAJOR_AXIS":"6925.384","TLE_LINE2":"2 47866  53.0529 212.6093 0001766  56.4316 303.6842 15.06388425 72855","GP_ID":"207031969"},{"TIME_SYSTEM":"UTC","ELEMENT_SET_NO":"999","MEAN_MOTION_DOT":"-0.00000597","SITE":"AFETR","RA_OF_ASC_NODE":"201.7363","ARG_OF_PERICENTER":"62.6408","FILE":"3504942","OBJECT_ID":"2021-021H","CLASSIFICATION_TYPE":"U","CENTER_NAME":"EARTH","MEAN_MOTION_DDOT":"0.0000000000000","EPOCH":"2022-06-28T18:00:35.490528","ECCENTRICITY":"0.00017780","PERIAPSIS":"545.979","REF_FRAME":"TEME","EPHEMERIS_TYPE":"0","MEAN_ELEMENT_THEORY":"SGP4","MEAN_MOTION":"15.06400967","RCS_SIZE":"LARGE","OBJECT_NAME":"STARLINK-2321","MEAN_ANOMALY":"297.4761","LAUNCH_DATE":"2021-03-14","OBJECT_TYPE":"PAYLOAD","TLE_LINE1":"1 47867U 21021H   22179.75041077 -.00000597  00000-0 -21141-4 0  9996","GP_ID":"207059080","TLE_LINE2":"2 47867  53.0551 201.7363 0001778  62.6408 297.4761 15.06400967 72827","SEMIMAJOR_AXIS":"6925.346","INCLINATION":"53.0551","REV_AT_EPOCH":"7282","APOAPSIS":"548.442","PERIOD":"95.592","NORAD_CAT_ID":"47867","BSTAR":"-0.00002114100000","COUNTRY_CODE":"US","DECAY_DATE":null},{"MEAN_MOTION_DOT":"-0.00000773","SITE":"AFETR","RA_OF_ASC_NODE":"153.5568","TIME_SYSTEM":"UTC","ELEMENT_SET_NO":"999","FILE":"3504789","OBJECT_ID":"2021-021J","CLASSIFICATION_TYPE":"U","CENTER_NAME":"EARTH","MEAN_MOTION_DDOT":"0.0000000000000","ARG_OF_PERICENTER":"64.8308","EPOCH":"2022-06-28T08:18:04.654944","ECCENTRICITY":"0.00016910","EPHEMERIS_TYPE":"0","MEAN_MOTION":"15.06396668","MEAN_ELEMENT_THEORY":"SGP4","REF_FRAME":"TEME","PERIAPSIS":"546.053","LAUNCH_DATE":"2021-03-14","OBJECT_TYPE":"PAYLOAD","TLE_LINE1":"1 47868U 21021J   22179.34588721 -.00000773  00000-0 -32994-4 0  9998","GP_ID":"207030469","SEMIMAJOR_AXIS":"6925.359","TLE_LINE2":"2 47868  53.0558 153.5568 0001691  64.8308 295.2856 15.06396668 73513","RCS_SIZE":"LARGE","OBJECT_NAME":"STARLINK-2323","MEAN_ANOMALY":"295.2856","INCLINATION":"53.0558","REV_AT_EPOCH":"7351","APOAPSIS":"548.395","NORAD_CAT_ID":"47868","BSTAR":"-0.00003299400000","COUNTRY_CODE":"US","DECAY_DATE":null,"PERIOD":"95.592"},{"DECAY_DATE":null,"COUNTRY_CODE":"US","BSTAR":"-0.00001415000000","NORAD_CAT_ID":"47869","PERIOD":"95.593","APOAPSIS":"548.385","REV_AT_EPOCH":"7293","INCLINATION":"53.0524","SEMIMAJOR_AXIS":"6925.366","TLE_LINE2":"2 47869  53.0524 202.9465 0001666  55.6206 304.4940 15.06394313 72936","GP_ID":"207031720","OBJECT_TYPE":"PAYLOAD","TLE_LINE1":"1 47869U 21021K   22179.48135139 -.00000492  00000-0 -14150-4 0  9997","LAUNCH_DATE":"2021-03-14","MEAN_ANOMALY":"304.4940","OBJECT_NAME":"STARLINK-2324","RCS_SIZE":"LARGE","MEAN_ELEMENT_THEORY":"SGP4","MEAN_MOTION":"15.06394313","EPHEMERIS_TYPE":"0","PERIAPSIS":"546.077","REF_FRAME":"TEME","ECCENTRICITY":"0.00016660","EPOCH":"2022-06-28T11:33:08.760096","MEAN_MOTION_DDOT":"0.0000000000000","CLASSIFICATION_TYPE":"U","CENTER_NAME":"EARTH","OBJECT_ID":"2021-021K","FILE":"3504789","ARG_OF_PERICENTER":"55.6206","RA_OF_ASC_NODE":"202.9465","SITE":"AFETR","MEAN_MOTION_DOT":"-0.00000492","ELEMENT_SET_NO":"999","TIME_SYSTEM":"UTC"},{"ECCENTRICITY":"0.00017390","EPOCH":"2022-06-28T10:23:28.881024","MEAN_MOTION":"15.06392181","MEAN_ELEMENT_THEORY":"SGP4","EPHEMERIS_TYPE":"0","PERIAPSIS":"546.033","REF_FRAME":"TEME","RA_OF_ASC_NODE":"228.1517","SITE":"AFETR","MEAN_MOTION_DOT":"-0.00001263","ELEMENT_SET_NO":"999","TIME_SYSTEM":"UTC","MEAN_MOTION_DDOT":"0.0000000000000","CLASSIFICATION_TYPE":"U","CENTER_NAME":"EARTH","OBJECT_ID":"2021-021L","FILE":"3504789","ARG_OF_PERICENTER":"46.7257","APOAPSIS":"548.442","REV_AT_EPOCH":"7236","DECAY_DATE":null,"COUNTRY_CODE":"US","BSTAR":"-0.00006592400000","NORAD_CAT_ID":"47870","PERIOD":"95.593","SEMIMAJOR_AXIS":"6925.373","TLE_LINE2":"2 47870  53.0551 228.1517 0001739  46.7257 313.3876 15.06392181 72369","GP_ID":"207031471","TLE_LINE1":"1 47870U 21021L   22179.43297316 -.00001263  00000-0 -65924-4 0  9992","OBJECT_TYPE":"PAYLOAD","LAUNCH_DATE":"2021-03-14","MEAN_ANOMALY":"313.3876","OBJECT_NAME":"STARLINK-2326","RCS_SIZE":"LARGE","INCLINATION":"53.0551"},{"ELEMENT_SET_NO":"999","TIME_SYSTEM":"UTC","RA_OF_ASC_NODE":"202.9691","SITE":"AFETR","MEAN_MOTION_DOT":"-0.00001075","ARG_OF_PERICENTER":"60.5541","MEAN_MOTION_DDOT":"0.0000000000000","CLASSIFICATION_TYPE":"U","CENTER_NAME":"EARTH","OBJECT_ID":"2021-021M","FILE":"3504789","ECCENTRICITY":"0.00016590","EPOCH":"2022-06-28T11:27:50.404608","REF_FRAME":"TEME","PERIAPSIS":"546.119","MEAN_MOTION":"15.06382405","MEAN_ELEMENT_THEORY":"SGP4","EPHEMERIS_TYPE":"0","MEAN_ANOMALY":"299.5613","OBJECT_NAME":"STARLINK-2327","RCS_SIZE":"LARGE","TLE_LINE2":"2 47871  53.0538 202.9691 0001659  60.5541 299.5613 15.06382405 72822","SEMIMAJOR_AXIS":"6925.402","GP_ID":"207030719","TLE_LINE1":"1 47871U 21021M   22179.47766672 -.00001075  00000-0 -53318-4 0  9998","OBJECT_TYPE":"PAYLOAD","LAUNCH_DATE":"2021-03-14","INCLINATION":"53.0538","APOAPSIS":"548.416","REV_AT_EPOCH":"7282","PERIOD":"95.593","DECAY_DATE":null,"COUNTRY_CODE":"US","BSTAR":"-0.00005331800000","NORAD_CAT_ID":"47871"}];
